NORAD_CAT_ID,OBJECT_NAME,OBJECT_TYPE,EPOCH,MEAN_MOTION,ECCENTRICITY,INCLINATION,RA_OF_ASC_NODE,ARG_OF_PERICENTER,MEAN_ANOMALY,BSTAR,MEAN_MOTION_DOT,MEAN_MOTION_DDOT,TLE_LINE0,TLE_LINE1,TLE_LINE2,SEMIMAJOR_AXIS,PERIOD,APOGEE,PERIGEE,DECAYED
56803.0,STARLINK-6029,PAYLOAD,2024-05-01 18:17:32,14.98340312,0.0003561,70.0004,251.203,276.2423,83.833,1.9559e-05,1.4e-06,0.0,0 STARLINK-6029,1 56803U 23078AN  24122.76217810  .00000140  00000-0  19559-4 0  9993,2 56803  70.0004 251.2030 0003561 276.2423  83.8330 14.98340312 51544,6950.161,96.106,574.501,569.551,0.0
56803.0,STARLINK-6029,PAYLOAD,2024-05-02 11:55:01,14.98325458,0.0003536,70.0007,249.3518,275.1742,84.9013,-4.3795e-05,-6.16e-06,0.0,0 STARLINK-6029,1 56803U 23078AN  24123.49654741 -.00000616  00000-0 -43795-4 0  9991,2 56803  70.0007 249.3518 0003536 275.1742  84.9013 14.98325458 51656,6950.207,96.107,574.53,569.614,0.0
56803.0,STARLINK-6029,PAYLOAD,2024-05-02 13:31:09,14.98325496,0.0003534,70.0007,249.1835,275.1682,84.9074,-4.3903e-05,-6.17e-06,0.0,0 STARLINK-6029,1 56803U 23078AN  24123.56330750 -.00000617  00000-0 -43903-4 0  9992,2 56803  70.0007 249.1835 0003534 275.1682  84.9074 14.98325496 51409,6950.207,96.107,574.528,569.616,0.0
56803.0,STARLINK-6029,PAYLOAD,2024-05-02 18:19:33,14.98332426,0.0003477,70.0006,248.6775,273.1671,86.909,2.9211e-06,-5.8e-07,0.0,0 STARLINK-6029,1 56803U 23078AN  24123.76358151 -.00000058  00000-0  29211-5 0  9994,2 56803  70.0006 248.6775 0003477 273.1671  86.9090 14.98332426 51699,6950.185,96.107,574.467,569.634,0.0
56803.0,STARLINK-6029,PAYLOAD,2024-05-03 13:33:09,14.98336928,0.0003538,70.0003,246.658,272.2505,87.8249,0.00015383,1.743e-05,0.0,0 STARLINK-6029,1 56803U 23078AN  24124.56469150  .00001743  00000-0  15383-3 0  9999,2 56803  70.0003 246.6580 0003538 272.2505  87.8249 14.98336928 51813,6950.171,96.107,574.495,569.577,0.0
56803.0,STARLINK-6029,PAYLOAD,2024-05-03 15:09:16,14.98340175,0.0003562,70.0002,246.4899,271.309,88.7661,0.00018596,2.127e-05,0.0,0 STARLINK-6029,1 56803U 23078AN  24124.63144653  .00002127  00000-0  18596-3 0  9991,2 56803  70.0002 246.4899 0003562 271.3090  88.7661 14.98340175 51568,6950.161,96.106,574.502,569.551,0.0
56803.0,STARLINK-6029,PAYLOAD,2024-05-03 18:21:32,14.98341519,0.0003554,70.0003,246.1533,271.3133,88.7619,0.00019629,2.251e-05,0.0,0 STARLINK-6029,1 56803U 23078AN  24124.76496483  .00002251  00000-0  19629-3 0  9992,2 56803  70.0003 246.1533 0003554 271.3133  88.7619 14.98341519 51588,6950.157,96.106,574.492,569.552,0.0
56803.0,STARLINK-6029,PAYLOAD,2024-05-04 00:46:06,14.98328048,0.0003111,70.0036,245.4801,270.2482,89.832,2.3043e-05,1.82e-06,0.0,0 STARLINK-6029,1 56803U 23078AN  24125.03201756  .00000182  00000-0  23043-4 0  9997,2 56803  70.0036 245.4801 0003111 270.2482  89.8320 14.98328048 51884,6950.199,96.107,574.226,569.902,0.0
56803.0,STARLINK-6029,PAYLOAD,2024-05-04 11:59:03,14.98317292,0.0003144,70.0011,244.3026,268.8883,91.1916,-4.3703e-05,-6.14e-06,0.0,0 STARLINK-6029,1 56803U 23078AN  24125.49934842 -.00000614  00000-0 -43703-4 0  9993,2 56803  70.0011 244.3026 0003144 268.8883  91.1916 14.98317292 51952,6950.232,96.108,574.282,569.912,0.0
56803.0,STARLINK-6029,PAYLOAD,2024-05-05 00:48:08,14.98325677,0.0003406,70.0003,242.9558,269.9951,90.0818,-5.4735e-05,-7.46e-06,0.0,0 STARLINK-6029,1 56803U 23078AN  24126.03342605 -.00000746  00000-0 -54735-4 0  9997,2 56803  70.0003 242.9558 0003406 269.9951  90.0818 14.98325677 52031,6950.206,96.107,574.438,569.704,0.0
56803.0,STARLINK-6029,PAYLOAD,2024-05-05 12:01:02,14.98354842,0.0003173,70.0024,241.778,273.0625,87.0171,0.00022557,2.601e-05,0.0,0 STARLINK-6029,1 56803U 23078AN  24126.50071838  .00002601  00000-0  22557-3 0  9992,2 56803  70.0024 241.7780 0003173 273.0625  87.0171 14.98354842 52105,6950.116,96.105,574.186,569.776,0.0
56803.0,STARLINK-6029,PAYLOAD,2024-05-05 13:37:09,14.98358164,0.0003422,70.003,241.6098,281.4912,78.5863,0.00021959,2.53e-05,0.0,0 STARLINK-6029,1 56803U 23078AN  24126.56747595  .00002530  00000-0  21959-3 0  9994,2 56803  70.0030 241.6098 0003422 281.4912  78.5863 14.98358164 51857,6950.106,96.105,574.349,569.592,0.0
56803.0,STARLINK-6029,PAYLOAD,2024-05-05 16:49:25,14.98363794,0.0003122,70.0028,241.2734,280.6945,79.3862,0.00028768,3.344e-05,0.0,0 STARLINK-6029,1 56803U 23078AN  24126.70098820  .00003344  00000-0  28768-3 0  9999,2 56803  70.0028 241.2734 0003122 280.6945  79.3862 14.98363794 52136,6950.088,96.105,574.123,569.784,0.0
56803.0,STARLINK-6029,PAYLOAD,2024-05-06 00:50:05,14.98366099,0.0003346,70.0004,240.4294,271.4131,88.6645,-6.4974e-05,-8.69e-06,0.0,0 STARLINK-6029,1 56803U 23078AN  24127.03478631 -.00000869  00000-0 -64974-4 0  9999,2 56803  70.0004 240.4294 0003346 271.4131  88.6645 14.98366099 52183,6950.081,96.105,574.272,569.621,0.0
56803.0,STARLINK-6029,PAYLOAD,2024-05-06 13:39:12,14.98320729,0.0003571,70.0002,239.0846,264.8888,95.1864,5.9691e-05,6.19e-06,0.0,0 STARLINK-6029,1 56803U 23078AN  24127.56889333  .00000619  00000-0  59691-4 0  9993,2 56803  70.0002 239.0846 0003571 264.8888  95.1864 14.98320729 52268,6950.222,96.108,574.568,569.605,0.0
56803.0,STARLINK-6029,PAYLOAD,2024-05-06 16:51:28,14.98320391,0.0003435,70.0005,238.748,261.6058,98.4711,8.7579e-05,9.52e-06,0.0,0 STARLINK-6029,1 56803U 23078AN  24127.70241339  .00000952  00000-0  87579-4 0  9993,2 56803  70.0005 238.7480 0003435 261.6058  98.4711 14.98320391 52020,6950.223,96.108,574.475,569.7,0.0
56803.0,STARLINK-6029,PAYLOAD,2024-05-07 00:52:08,14.98336426,0.0004224,69.9996,237.9054,255.2314,104.8377,-0.00025823,-3.174e-05,0.0,0 STARLINK-6029,1 56803U 23078AN  24128.03620864 -.00003174  00000-0 -25823-3 0  9998,2 56803  69.9996 237.9054 0004224 255.2314 104.8377 14.98336426 52335,6950.173,96.107,574.974,569.102,0.0
56803.0,STARLINK-6029,PAYLOAD,2024-05-07 12:05:05,14.98323399,0.0003584,70.0008,236.7264,267.1199,92.955,-0.00021938,-2.709e-05,0.0,0 STARLINK-6029,1 56803U 23078AN  24128.50354136 -.00002709  00000-0 -21938-3 0  9992,2 56803  70.0008 236.7264 0003584 267.1199  92.9550 14.98323399 52406,6950.213,96.107,574.569,569.587,0.0
56803.0,STARLINK-6029,PAYLOAD,2024-05-07 13:41:13,14.98338636,0.0003645,70.0,236.5586,264.7834,95.291,-0.00045317,-5.497e-05,0.0,0 STARLINK-6029,1 56803U 23078AN  24128.57029738 -.00005497  00000-0 -45317-3 0  9990,2 56803  70.0000 236.5586 0003645 264.7834  95.2910 14.98338636 52158,6950.166,96.106,574.565,569.498,0.0
56803.0,STARLINK-6029,PAYLOAD,2024-05-07 16:53:29,14.98338363,0.0003612,70.0002,236.2219,264.4815,95.5932,-0.00042197,-5.126e-05,0.0,0 STARLINK-6029,1 56803U 23078AN  24128.70381633 -.00005126  00000-0 -42197-3 0  9992,2 56803  70.0002 236.2219 0003612 264.4815  95.5932 14.98338363 52435,6950.167,96.106,574.542,569.522,0.0
56803.0,STARLINK-6029,PAYLOAD,2024-05-08 13:43:14,14.98322353,0.0003747,69.9999,234.0345,263.9155,96.1577,0.0001604,1.821e-05,0.0,0 STARLINK-6029,1 56803U 23078AN  24129.57169517  .00001821  00000-0  16040-3 0  9997,2 56803  69.9999 234.0345 0003747 263.9155  96.1577 14.98322353 52303,6950.217,96.107,574.686,569.477,0.0
56803.0,STARLINK-6029,PAYLOAD,2024-05-08 16:55:30,14.98324443,0.0003714,70.0001,233.6978,263.9564,96.1172,0.00018427,2.106e-05,0.0,0 STARLINK-6029,1 56803U 23078AN  24129.70521452  .00002106  00000-0  18427-3 0  9990,2 56803  70.0001 233.6978 0003714 263.9564  96.1172 14.98324443 52588,6950.21,96.107,574.656,569.494,0.0
56803.0,STARLINK-6029,PAYLOAD,2024-05-09 13:45:15,14.98332157,0.0003618,70.0005,231.5097,262.9027,97.1721,0.00033355,3.889e-05,0.0,0 STARLINK-6029,1 56803U 23078AN  24130.57309414  .00003889  00000-0  33355-3 0  9995,2 56803  70.0005 231.5097 0003618 262.9027  97.1721 14.98332157 52455,6950.186,96.107,574.566,569.537,0.0
56803.0,STARLINK-6029,PAYLOAD,2024-05-09 16:57:31,14.98339864,0.0003697,70.0017,231.1732,264.6458,95.4279,0.00054874,6.462e-05,0.0,0 STARLINK-6029,1 56803U 23078AN  24130.70661462  .00006462  00000-0  54874-3 0  9993,2 56803  70.0017 231.1732 0003697 264.6458  95.4279 14.98339864 52477,6950.162,96.106,574.597,569.458,0.0
56803.0,STARLINK-6029,PAYLOAD,2024-05-10 12:11:08,14.98332178,0.0003359,70.0012,229.1548,265.7261,94.3514,1.0742e-05,3.5e-07,0.0,0 STARLINK-6029,1 56803U 23078AN  24131.50774202  .00000035  00000-0  10742-4 0  9996,2 56803  70.0012 229.1548 0003359 265.7261  94.3514 14.98332178 52856,6950.186,96.107,574.386,569.717,0.0
56803.0,STARLINK-6029,PAYLOAD,2024-05-10 13:47:17,14.98328669,0.0003219,70.0017,228.9862,257.2432,102.8367,0.00012879,1.444e-05,0.0,0 STARLINK-6029,1 56803U 23078AN  24131.57450241  .00001444  00000-0  12879-3 0  9994,2 56803  70.0017 228.9862 0003219 257.2432 102.8367 14.98328669 52602,6950.197,96.107,574.299,569.825,0.0
56803.0,STARLINK-6029,PAYLOAD,2024-05-10 15:23:25,14.98328397,0.0003214,70.0017,228.8178,259.1862,100.8936,0.00012356,1.382e-05,0.0,0 STARLINK-6029,1 56803U 23078AN  24131.64126268  .00001382  00000-0  12356-3 0  9992,2 56803  70.0017 228.8178 0003214 259.1862 100.8936 14.98328397 52613,6950.198,96.107,574.297,569.829,0.0
56803.0,STARLINK-6029,PAYLOAD,2024-05-11 12:13:05,14.98402474,0.0003288,70.0018,226.6287,269.042,91.0362,0.001244,0.0001481,0.0,0 STARLINK-6029,1 56803U 23078AN  24132.50909491  .00014810  00000-0  12440-2 0  9998,2 56803  70.0018 226.6287 0003288 269.0420  91.0362 14.98402474 53009,6949.969,96.102,574.119,569.549,0.0
56803.0,STARLINK-6029,PAYLOAD,2024-05-11 15:25:24,14.98342766,0.0002962,70.0019,226.2922,282.8945,77.1883,-5.0081e-05,-6.91e-06,0.0,0 STARLINK-6029,1 56803U 23078AN  24132.64263908 -.00000691  00000-0 -50081-4 0  9998,2 56803  70.0019 226.2922 0002962 282.8945  77.1883 14.98342766 53027,6950.153,96.106,574.077,569.96,0.0
56803.0,STARLINK-6029,PAYLOAD,2024-05-11 23:26:05,14.98316716,0.0002746,70.0023,225.4498,266.6301,93.4544,-0.00087557,-0.00010521,0.0,0 STARLINK-6029,1 56803U 23078AN  24132.97644794 -.00010521  00000-0 -87557-3 0  9990,2 56803  70.0023 225.4498 0002746 266.6301  93.4544 14.98316716 53073,6950.234,96.108,574.008,570.19,0.0
